start=new Date('2022-02-24T00:00:00.000Z').valueOf();
sats=[{"MEAN_ANOMALY":"300.4759","CENTER_NAME":"EARTH","REF_FRAME":"TEME","OBJECT_NAME":"STARLINK-2162","NORAD_CAT_ID":"47748","DECAY_DATE":null,"COUNTRY_CODE":"US","OBJECT_TYPE":"PAYLOAD","EPHEMERIS_TYPE":"0","TIME_SYSTEM":"UTC","OBJECT_ID":"2021-017AC","ECCENTRICITY":"0.00017860","ELEMENT_SET_NO":"999","GP_ID":"196785123","MEAN_ELEMENT_THEORY":"SGP4","LAUNCH_DATE":"2021-03-04","INCLINATION":"53.0540","FILE":"3317219","MEAN_MOTION_DDOT":"0.0000000000000","TLE_LINE1":"1 47748U 21017AC  22054.83576367  .00001666  00000-0  13073-3 0  9995","EPOCH":"2022-02-23T20:03:29.981088","MEAN_MOTION_DOT":"0.00001666","RCS_SIZE":"LARGE","SITE":"AFETR","APOAPSIS":"548.452","TLE_LINE2":"2 47748  53.0540 342.5088 0001786  59.6407 300.4759 15.06399644 55579","MEAN_MOTION":"15.06399644","RA_OF_ASC_NODE":"342.5088","REV_AT_EPOCH":"5557","ARG_OF_PERICENTER":"59.6407","CLASSIFICATION_TYPE":"U","PERIAPSIS":"545.978","BSTAR":"0.00013073000000","SEMIMAJOR_AXIS":"6925.350","PERIOD":"95.592"},{"MEAN_MOTION_DOT":"0.00002817","EPOCH":"2022-02-23T20:24:45.160416","MEAN_MOTION_DDOT":"0.0000000000000","TLE_LINE1":"1 47749U 21017AD  22054.85052269  .00002817  00000-0  20803-3 0  9996","MEAN_MOTION":"15.06385074","RA_OF_ASC_NODE":"342.4268","RCS_SIZE":"LARGE","SITE":"AFETR","APOAPSIS":"548.329","TLE_LINE2":"2 47749  53.0572 342.4268 0001544  56.7775 303.3362 15.06385074 55576","PERIAPSIS":"546.190","REV_AT_EPOCH":"5557","ARG_OF_PERICENTER":"56.7775","CLASSIFICATION_TYPE":"U","BSTAR":"0.00020803000000","SEMIMAJOR_AXIS":"6925.394","PERIOD":"95.593","CENTER_NAME":"EARTH","REF_FRAME":"TEME","MEAN_ANOMALY":"303.3362","DECAY_DATE":null,"COUNTRY_CODE":"US","OBJECT_TYPE":"PAYLOAD","EPHEMERIS_TYPE":"0","OBJECT_NAME":"STARLINK-2163","NORAD_CAT_ID":"47749","TIME_SYSTEM":"UTC","OBJECT_ID":"2021-017AD","ECCENTRICITY":"0.00015440","LAUNCH_DATE":"2021-03-04","INCLINATION":"53.0572","FILE":"3317219","ELEMENT_SET_NO":"999","GP_ID":"196785875","MEAN_ELEMENT_THEORY":"SGP4"},{"PERIAPSIS":"545.796","REV_AT_EPOCH":"5489","CLASSIFICATION_TYPE":"U","ARG_OF_PERICENTER":"65.7903","SEMIMAJOR_AXIS":"6925.328","BSTAR":"0.00017857000000","PERIOD":"95.592","MEAN_MOTION_DOT":"0.00002380","EPOCH":"2022-02-23T11:55:11.232192","MEAN_MOTION_DDOT":"0.0000000000000","TLE_LINE1":"1 47750U 21017AE  22054.49665778  .00002380  00000-0  17857-3 0  9993","MEAN_MOTION":"15.06406840","RA_OF_ASC_NODE":"344.0293","SITE":"AFETR","RCS_SIZE":"LARGE","TLE_LINE2":"2 47750  53.0552 344.0293 0002016  65.7903 294.3296 15.06406840 54894","APOAPSIS":"548.589","OBJECT_ID":"2021-017AE","TIME_SYSTEM":"UTC","ECCENTRICITY":"0.00020160","LAUNCH_DATE":"2021-03-04","FILE":"3316555","INCLINATION":"53.0552","MEAN_ELEMENT_THEORY":"SGP4","GP_ID":"196749542","ELEMENT_SET_NO":"999","CENTER_NAME":"EARTH","REF_FRAME":"TEME","MEAN_ANOMALY":"294.3296","DECAY_DATE":null,"OBJECT_TYPE":"PAYLOAD","COUNTRY_CODE":"US","EPHEMERIS_TYPE":"0","OBJECT_NAME":"STARLINK-2164","NORAD_CAT_ID":"47750"},{"RA_OF_ASC_NODE":"332.6774","MEAN_MOTION":"15.06393685","APOAPSIS":"548.383","TLE_LINE2":"2 47751  53.0549 332.6774 0001660  57.2842 302.8307 15.06393685 55712","RCS_SIZE":"LARGE","SITE":"AFETR","EPOCH":"2022-02-23T19:01:09.554880","MEAN_MOTION_DOT":"0.00005144","TLE_LINE1":"1 47751U 21017AF  22054.79247170  .00005144  00000-0  36405-3 0  9990","MEAN_MOTION_DDOT":"0.0000000000000","PERIOD":"95.593","BSTAR":"0.00036405000000","SEMIMAJOR_AXIS":"6925.368","PERIAPSIS":"546.083","CLASSIFICATION_TYPE":"U","ARG_OF_PERICENTER":"57.2842","REV_AT_EPOCH":"5571","COUNTRY_CODE":"US","OBJECT_TYPE":"PAYLOAD","EPHEMERIS_TYPE":"0","DECAY_DATE":null,"NORAD_CAT_ID":"47751","OBJECT_NAME":"STARLINK-2168","REF_FRAME":"TEME","CENTER_NAME":"EARTH","MEAN_ANOMALY":"302.8307","FILE":"3317219","INCLINATION":"53.0549","LAUNCH_DATE":"2021-03-04","GP_ID":"196785374","ELEMENT_SET_NO":"999","MEAN_ELEMENT_THEORY":"SGP4","ECCENTRICITY":"0.00016600","TIME_SYSTEM":"UTC","OBJECT_ID":"2021-017AF"},{"MEAN_MOTION_DOT":"0.00003500","EPOCH":"2022-02-23T19:49:34.483584","MEAN_MOTION_DDOT":"0.0000000000000","TLE_LINE1":"1 47752U 21017AG  22054.82609356  .00003500  00000-0  25382-3 0  9999","MEAN_MOTION":"15.06392170","RA_OF_ASC_NODE":"347.5518","RCS_SIZE":"LARGE","SITE":"AFETR","APOAPSIS":"548.521","TLE_LINE2":"2 47752  53.0550 347.5518 0001853  59.2090 300.9081 15.06392170 55555","PERIAPSIS":"545.954","REV_AT_EPOCH":"5555","CLASSIFICATION_TYPE":"U","ARG_OF_PERICENTER":"59.2090","BSTAR":"0.00025382000000","SEMIMAJOR_AXIS":"6925.373","PERIOD":"95.593","CENTER_NAME":"EARTH","REF_FRAME":"TEME","MEAN_ANOMALY":"300.9081","DECAY_DATE":null,"OBJECT_TYPE":"PAYLOAD","COUNTRY_CODE":"US","EPHEMERIS_TYPE":"0","OBJECT_NAME":"STARLINK-2169","NORAD_CAT_ID":"47752","TIME_SYSTEM":"UTC","OBJECT_ID":"2021-017AG","ECCENTRICITY":"0.00018530","LAUNCH_DATE":"2021-03-04","INCLINATION":"53.0550","FILE":"3317219","ELEMENT_SET_NO":"999","GP_ID":"196785624","MEAN_ELEMENT_THEORY":"SGP4"},{"MEAN_MOTION_DDOT":"0.0000000000000","TLE_LINE1":"1 47753U 21017AH  22054.53628515  .00000959  00000-0  83263-4 0  9994","EPOCH":"2022-02-23T12:52:15.036960","MEAN_MOTION_DOT":"0.00000959","SITE":"AFETR","RCS_SIZE":"LARGE","TLE_LINE2":"2 47753  53.0575 353.8394 0001763  58.8633 301.2529 15.06398064 55439","APOAPSIS":"548.440","MEAN_MOTION":"15.06398064","RA_OF_ASC_NODE":"353.8394","REV_AT_EPOCH":"5543","ARG_OF_PERICENTER":"58.8633","CLASSIFICATION_TYPE":"U","PERIAPSIS":"545.999","SEMIMAJOR_AXIS":"6925.354","BSTAR":"0.00008326300000","PERIOD":"95.592","MEAN_ANOMALY":"301.2529","CENTER_NAME":"EARTH","REF_FRAME":"TEME","OBJECT_NAME":"STARLINK-2170","NORAD_CAT_ID":"47753","DECAY_DATE":null,"OBJECT_TYPE":"PAYLOAD","COUNTRY_CODE":"US","EPHEMERIS_TYPE":"0","OBJECT_ID":"2021-017AH","TIME_SYSTEM":"UTC","ECCENTRICITY":"0.00017630","MEAN_ELEMENT_THEORY":"SGP4","GP_ID":"196741882","ELEMENT_SET_NO":"999","LAUNCH_DATE":"2021-03-04","INCLINATION":"53.0575","FILE":"3316306"},{"NORAD_CAT_ID":"47754","OBJECT_NAME":"STARLINK-2171","EPHEMERIS_TYPE":"0","COUNTRY_CODE":"US","OBJECT_TYPE":"PAYLOAD","DECAY_DATE":null,"MEAN_ANOMALY":"306.4391","REF_FRAME":"TEME","CENTER_NAME":"EARTH","GP_ID":"196786126","ELEMENT_SET_NO":"999","MEAN_ELEMENT_THEORY":"SGP4","FILE":"3317219","INCLINATION":"53.0573","LAUNCH_DATE":"2021-03-04","ECCENTRICITY":"0.00018590","TIME_SYSTEM":"UTC","OBJECT_ID":"2021-017AJ","APOAPSIS":"548.529","TLE_LINE2":"2 47754  53.0573 352.4907 0001859  53.6769 306.4391 15.06390972 55447","RCS_SIZE":"LARGE","SITE":"AFETR","RA_OF_ASC_NODE":"352.4907","MEAN_MOTION":"15.06390972","TLE_LINE1":"1 47754U 21017AJ  22054.83852921  .00001964  00000-0  15073-3 0  9998","MEAN_MOTION_DDOT":"0.0000000000000","EPOCH":"2022-02-23T20:07:28.923744","MEAN_MOTION_DOT":"0.00001964","PERIOD":"95.593","BSTAR":"0.00015073000000","SEMIMAJOR_AXIS":"6925.376","CLASSIFICATION_TYPE":"U","ARG_OF_PERICENTER":"53.6769","REV_AT_EPOCH":"5544","PERIAPSIS":"545.954"},{"SITE":"AFETR","RCS_SIZE":"LARGE","TLE_LINE2":"2 47755  53.0532 331.1621 0001522  51.2032 308.9114 15.53414791 55734","APOAPSIS":"407.799","MEAN_MOTION":"15.53414791","RA_OF_ASC_NODE":"331.1621","MEAN_MOTION_DDOT":"0.0000000000000","TLE_LINE1":"1 47755U 21017AK  22054.79915793  .00047421  00000-0  73907-3 0  9999","EPOCH":"2022-02-23T19:10:47.245152","MEAN_MOTION_DOT":"0.00047421","SEMIMAJOR_AXIS":"6784.902","BSTAR":"0.00073907000000","PERIOD":"92.699","REV_AT_EPOCH":"5573","ARG_OF_PERICENTER":"51.2032","CLASSIFICATION_TYPE":"U","PERIAPSIS":"405.734","OBJECT_NAME":"STARLINK-2172","NORAD_CAT_ID":"47755","DECAY_DATE":null,"OBJECT_TYPE":"PAYLOAD","COUNTRY_CODE":"US","EPHEMERIS_TYPE":"0","MEAN_ANOMALY":"308.9114","CENTER_NAME":"EARTH","REF_FRAME":"TEME","MEAN_ELEMENT_THEORY":"SGP4","ELEMENT_SET_NO":"999","GP_ID":"196784874","LAUNCH_DATE":"2021-03-04","FILE":"3317219","INCLINATION":"53.0532","OBJECT_ID":"2021-017AK","TIME_SYSTEM":"UTC","ECCENTRICITY":"0.00015220"},{"BSTAR":"0.00000754820000","SEMIMAJOR_AXIS":"6925.363","PERIOD":"95.592","PERIAPSIS":"546.095","REV_AT_EPOCH":"5547","ARG_OF_PERICENTER":"62.0643","CLASSIFICATION_TYPE":"U","MEAN_MOTION":"15.06395415","RA_OF_ASC_NODE":"352.8103","RCS_SIZE":"LARGE","SITE":"AFETR","APOAPSIS":"548.361","TLE_LINE2":"2 47756  53.0546 352.8103 0001636  62.0643 298.0511 15.06395415 55479","MEAN_MOTION_DOT":"-0.00000169","EPOCH":"2022-02-23T18:26:37.857408","MEAN_MOTION_DDOT":"0.0000000000000","TLE_LINE1":"1 47756U 21017AL  22054.76849372 -.00000169  00000-0  75482-5 0  9997","LAUNCH_DATE":"2021-03-04","FILE":"3317219","INCLINATION":"53.0546","GP_ID":"196785124","ELEMENT_SET_NO":"999","MEAN_ELEMENT_THEORY":"SGP4","TIME_SYSTEM":"UTC","OBJECT_ID":"2021-017AL","ECCENTRICITY":"0.00016360","DECAY_DATE":null,"OBJECT_TYPE":"PAYLOAD","COUNTRY_CODE":"US","EPHEMERIS_TYPE":"0","OBJECT_NAME":"STARLINK-2174","NORAD_CAT_ID":"47756","CENTER_NAME":"EARTH","REF_FRAME":"TEME","MEAN_ANOMALY":"298.0511"},{"CLASSIFICATION_TYPE":"U","ARG_OF_PERICENTER":"50.5508","REV_AT_EPOCH":"5476","PERIAPSIS":"545.739","PERIOD":"95.592","BSTAR":"0.00008924800000","SEMIMAJOR_AXIS":"6925.329","TLE_LINE1":"1 47757U 21017AM  22054.55470535  .00001048  00000-0  89248-4 0  9996","MEAN_MOTION_DDOT":"0.0000000000000","MEAN_MOTION_DOT":"0.00001048","EPOCH":"2022-02-23T13:18:46.542240","APOAPSIS":"548.650","TLE_LINE2":"2 47757  53.0562 353.7712 0002102  50.5508 309.5666 15.06406225 54767","RCS_SIZE":"LARGE","SITE":"AFETR","RA_OF_ASC_NODE":"353.7712","MEAN_MOTION":"15.06406225","ECCENTRICITY":"0.00021020","TIME_SYSTEM":"UTC","OBJECT_ID":"2021-017AM","GP_ID":"196749572","ELEMENT_SET_NO":"999","MEAN_ELEMENT_THEORY":"SGP4","INCLINATION":"53.0562","FILE":"3316556","LAUNCH_DATE":"2021-03-04","MEAN_ANOMALY":"309.5666","REF_FRAME":"TEME","CENTER_NAME":"EARTH","NORAD_CAT_ID":"47757","OBJECT_NAME":"STARLINK-2175","COUNTRY_CODE":"US","OBJECT_TYPE":"PAYLOAD","EPHEMERIS_TYPE":"0","DECAY_DATE":null}];
